[{"OBJECT_NAME":"SHENZHOU-22","OBJECT_ID":"2025-272A","EPOCH":"2026-03-10T00:51:10.306080","MEAN_MOTION":15.60677472,"ECCENTRICITY":0.0006997,"INCLINATION":41.4664,"RA_OF_ASC_NODE":206.0569,"ARG_OF_PERICENTER":274.9746,"MEAN_ANOMALY":85.0294,"EPHEMERIS_TYPE":0,"CLASSIFICATION_TYPE":"U","NORAD_CAT_ID":66645,"ELEMENT_SET_NO":999,"REV_AT_EPOCH":26933,"BSTAR":0.00031825,"MEAN_MOTION_DOT":0.00026947,"MEAN_MOTION_DDOT":0},{"OBJECT_NAME":"SOYUZ-MS 28","OBJECT_ID":"2025-275A","EPOCH":"2026-03-10T03:48:27.800640","MEAN_MOTION":15.485572,"ECCENTRICITY":0.0007972,"INCLINATION":51.6324,"RA_OF_ASC_NODE":70.0375,"ARG_OF_PERICENTER":176.2903,"MEAN_ANOMALY":183.8146,"EPHEMERIS_TYPE":0,"CLASSIFICATION_TYPE":"U","NORAD_CAT_ID":66664,"ELEMENT_SET_NO":999,"REV_AT_EPOCH":55641,"BSTAR":0.00017626,"MEAN_MOTION_DOT":9.13e-5,"MEAN_MOTION_DDOT":0},{"OBJECT_NAME":"DUPLEX","OBJECT_ID":"1998-067XS","EPOCH":"2026-03-10T03:56:17.615328","MEAN_MOTION":15.56246979,"ECCENTRICITY":0.0002484,"INCLINATION":51.6294,"RA_OF_ASC_NODE":67.0775,"ARG_OF_PERICENTER":114.3644,"MEAN_ANOMALY":245.7607,"EPHEMERIS_TYPE":0,"CLASSIFICATION_TYPE":"U","NORAD_CAT_ID":66906,"ELEMENT_SET_NO":999,"REV_AT_EPOCH":1520,"BSTAR":0.000548,"MEAN_MOTION_DOT":0.00038918,"MEAN_MOTION_DDOT":0},{"OBJECT_NAME":"ISS OBJECT XT","OBJECT_ID":"1998-067XT","EPOCH":"2026-03-10T05:16:15.620736","MEAN_MOTION":15.69436118,"ECCENTRICITY":0.0004725,"INCLINATION":51.6253,"RA_OF_ASC_NODE":62.933,"ARG_OF_PERICENTER":80.8513,"MEAN_ANOMALY":279.3019,"EPHEMERIS_TYPE":0,"CLASSIFICATION_TYPE":"U","NORAD_CAT_ID":66907,"ELEMENT_SET_NO":999,"REV_AT_EPOCH":1526,"BSTAR":0.0015519,"MEAN_MOTION_DOT":0.00189996,"MEAN_MOTION_DDOT":0},{"OBJECT_NAME":"ISS OBJECT XU","OBJECT_ID":"1998-067XU","EPOCH":"2026-03-10T05:13:36.304320","MEAN_MOTION":15.69558818,"ECCENTRICITY":0.0004867,"INCLINATION":51.6259,"RA_OF_ASC_NODE":62.9179,"ARG_OF_PERICENTER":83.082,"MEAN_ANOMALY":277.0731,"EPHEMERIS_TYPE":0,"CLASSIFICATION_TYPE":"U","NORAD_CAT_ID":66908,"ELEMENT_SET_NO":999,"REV_AT_EPOCH":1526,"BSTAR":0.0015554,"MEAN_MOTION_DOT":0.0019144,"MEAN_MOTION_DDOT":0},{"OBJECT_NAME":"SILVERSAT","OBJECT_ID":"1998-067XV","EPOCH":"2026-03-10T05:13:58.057248","MEAN_MOTION":15.72479555,"ECCENTRICITY":0.0005475,"INCLINATION":51.6252,"RA_OF_ASC_NODE":62.1676,"ARG_OF_PERICENTER":80.1195,"MEAN_ANOMALY":280.0421,"EPHEMERIS_TYPE":0,"CLASSIFICATION_TYPE":"U","NORAD_CAT_ID":66909,"ELEMENT_SET_NO":999,"REV_AT_EPOCH":1527,"BSTAR":0.0017776,"MEAN_MOTION_DOT":0.00249186,"MEAN_MOTION_DDOT":0},{"OBJECT_NAME":"ISS OBJECT XW","OBJECT_ID":"1998-067XW","EPOCH":"2026-03-10T00:33:59.903136","MEAN_MOTION":15.68689366,"ECCENTRICITY":0.0005175,"INCLINATION":51.625,"RA_OF_ASC_NODE":63.8675,"ARG_OF_PERICENTER":86.7803,"MEAN_ANOMALY":273.3786,"EPHEMERIS_TYPE":0,"CLASSIFICATION_TYPE":"U","NORAD_CAT_ID":66910,"ELEMENT_SET_NO":999,"REV_AT_EPOCH":1523,"BSTAR":0.0012763,"MEAN_MOTION_DOT":0.00150696,"MEAN_MOTION_DDOT":0},{"OBJECT_NAME":"ISS OBJECT XX","OBJECT_ID":"1998-067XX","EPOCH":"2026-03-10T03:36:51.107328","MEAN_MOTION":15.75641063,"ECCENTRICITY":0.0006878,"INCLINATION":51.6208,"RA_OF_ASC_NODE":61.6978,"ARG_OF_PERICENTER":85.5905,"MEAN_ANOMALY":274.588,"EPHEMERIS_TYPE":0,"CLASSIFICATION_TYPE":"U","NORAD_CAT_ID":66911,"ELEMENT_SET_NO":999,"REV_AT_EPOCH":1526,"BSTAR":0.0019566,"MEAN_MOTION_DOT":0.00317119,"MEAN_MOTION_DDOT":0},{"OBJECT_NAME":"ISS OBJECT XY","OBJECT_ID":"1998-067XY","EPOCH":"2026-03-10T03:45:46.510848","MEAN_MOTION":15.63784753,"ECCENTRICITY":0.0003229,"INCLINATION":51.6271,"RA_OF_ASC_NODE":64.7737,"ARG_OF_PERICENTER":90.6024,"MEAN_ANOMALY":269.5341,"EPHEMERIS_TYPE":0,"CLASSIFICATION_TYPE":"U","NORAD_CAT_ID":66912,"ELEMENT_SET_NO":999,"REV_AT_EPOCH":1522,"BSTAR":0.0011613,"MEAN_MOTION_DOT":0.00111888,"MEAN_MOTION_DDOT":0},{"OBJECT_NAME":"KNACKSAT-2","OBJECT_ID":"1998-067XZ","EPOCH":"2026-03-09T06:38:38.824800","MEAN_MOTION":15.51788436,"ECCENTRICITY":0.00093919,"INCLINATION":51.6309,"RA_OF_ASC_NODE":73.9008,"ARG_OF_PERICENTER":184.4289,"MEAN_ANOMALY":175.6619,"EPHEMERIS_TYPE":0,"CLASSIFICATION_TYPE":"U","NORAD_CAT_ID":67683,"ELEMENT_SET_NO":999,"REV_AT_EPOCH":472,"BSTAR":0.00068223388,"MEAN_MOTION_DOT":0.00041312,"MEAN_MOTION_DDOT":0},{"OBJECT_NAME":"GXIBA-1","OBJECT_ID":"1998-067YA","EPOCH":"2026-03-09T07:32:56.030496","MEAN_MOTION":15.54259962,"ECCENTRICITY":0.00110131,"INCLINATION":51.63,"RA_OF_ASC_NODE":73.4032,"ARG_OF_PERICENTER":174.4815,"MEAN_ANOMALY":185.6299,"EPHEMERIS_TYPE":0,"CLASSIFICATION_TYPE":"U","NORAD_CAT_ID":67684,"ELEMENT_SET_NO":999,"REV_AT_EPOCH":473,"BSTAR":0.0011905476,"MEAN_MOTION_DOT":0.00079693,"MEAN_MOTION_DDOT":0},{"OBJECT_NAME":"CORAL","OBJECT_ID":"1998-067YB","EPOCH":"2026-03-10T04:10:20.919936","MEAN_MOTION":15.52239456,"ECCENTRICITY":0.0011311,"INCLINATION":51.6309,"RA_OF_ASC_NODE":69.3914,"ARG_OF_PERICENTER":184.2035,"MEAN_ANOMALY":175.8861,"EPHEMERIS_TYPE":0,"CLASSIFICATION_TYPE":"U","NORAD_CAT_ID":67685,"ELEMENT_SET_NO":999,"REV_AT_EPOCH":486,"BSTAR":0.00082826,"MEAN_MOTION_DOT":0.00051186,"MEAN_MOTION_DDOT":0},{"OBJECT_NAME":"ISS OBJECT YC","OBJECT_ID":"1998-067YC","EPOCH":"2026-03-09T06:24:39.594816","MEAN_MOTION":15.52676056,"ECCENTRICITY":0.00078962,"INCLINATION":51.6312,"RA_OF_ASC_NODE":73.8379,"ARG_OF_PERICENTER":148.506,"MEAN_ANOMALY":211.6404,"EPHEMERIS_TYPE":0,"CLASSIFICATION_TYPE":"U","NORAD_CAT_ID":67686,"ELEMENT_SET_NO":999,"REV_AT_EPOCH":472,"BSTAR":0.00082449301,"MEAN_MOTION_DOT":0.000517,"MEAN_MOTION_DDOT":0},{"OBJECT_NAME":"LEOPARD","OBJECT_ID":"1998-067YD","EPOCH":"2026-03-09T14:18:57.773664","MEAN_MOTION":15.51994489,"ECCENTRICITY":0.0007827,"INCLINATION":51.632,"RA_OF_ASC_NODE":72.287,"ARG_OF_PERICENTER":153.8657,"MEAN_ANOMALY":206.2729,"EPHEMERIS_TYPE":0,"CLASSIFICATION_TYPE":"U","NORAD_CAT_ID":67687,"ELEMENT_SET_NO":999,"REV_AT_EPOCH":469,"BSTAR":0.00066276,"MEAN_MOTION_DOT":0.00040393,"MEAN_MOTION_DDOT":0},{"OBJECT_NAME":"ISS OBJECT YE","OBJECT_ID":"1998-067YE","EPOCH":"2026-03-10T04:05:51.732096","MEAN_MOTION":15.52532438,"ECCENTRICITY":0.0007869,"INCLINATION":51.6311,"RA_OF_ASC_NODE":69.3722,"ARG_OF_PERICENTER":152.3589,"MEAN_ANOMALY":207.7821,"EPHEMERIS_TYPE":0,"CLASSIFICATION_TYPE":"U","NORAD_CAT_ID":67688,"ELEMENT_SET_NO":999,"REV_AT_EPOCH":478,"BSTAR":0.00093465,"MEAN_MOTION_DOT":0.00058415,"MEAN_MOTION_DDOT":0},{"OBJECT_NAME":"CREW DRAGON 12","OBJECT_ID":"2026-031A","EPOCH":"2026-03-10T03:48:27.800640","MEAN_MOTION":15.485572,"ECCENTRICITY":0.0007972,"INCLINATION":51.6324,"RA_OF_ASC_NODE":70.0375,"ARG_OF_PERICENTER":176.2903,"MEAN_ANOMALY":183.8146,"EPHEMERIS_TYPE":0,"CLASSIFICATION_TYPE":"U","NORAD_CAT_ID":67796,"ELEMENT_SET_NO":999,"REV_AT_EPOCH":55629,"BSTAR":0.00017626,"MEAN_MOTION_DOT":9.13e-5,"MEAN_MOTION_DDOT":0}]
